ONEWEB-0156             
1 48052U 21025L   24227.91748115  .00000229  00000+0  59237-3 0  9993
2 48052  87.8880  93.8110 0001830  80.7631 279.3705 13.13471583165459
ONEWEB-0161             
1 48053U 21025M   24228.19521255 -.00000270  00000+0 -77444-3 0  9997
2 48053  87.8884  93.7640 0001439 102.7576 257.3714 13.13470732165438
ONEWEB-0158             
1 48054U 21025N   24227.92859364  .00000338  00000+0  88933-3 0  9991
2 48054  87.8882  93.8067 0001864  76.2321 283.9016 13.13470805165516
ONEWEB-0157             
1 48055U 21025P   24227.87621968 -.00000074  00000+0 -23661-3 0  9999
2 48055  87.8881  93.8314 0001967  84.3457 275.7897 13.13469591165443
ONEWEB-0162             
1 48056U 21025Q   24227.91589360  .00000238  00000+0  61638-3 0  9990
2 48056  87.8877  93.8183 0001879  80.3631 279.7711 13.13470417165421
ONEWEB-0155             
1 48057U 21025R   24227.86035856  .00000296  00000+0  77443-3 0  9996
2 48057  87.8882  93.8409 0001704  88.7030 271.4294 13.13470778165550
ONEWEB-0149             
1 48058U 21025S   24227.88098103 -.00000214  00000+0 -62067-3 0  9991
2 48058  87.8880  93.8327 0002043  79.4077 280.7282 13.13469327165360
ONEWEB-0148             
1 48059U 21025T   24227.92224772  .00000246  00000+0  63869-3 0  9994
2 48059  87.8881  93.8367 0002501  85.0322 275.1092 13.13469260165498
ONEWEB-0160             
1 48060U 21025U   24228.16664498  .00000315  00000+0  82801-3 0  9990
2 48060  87.8883  93.7841 0001669  48.2746 311.8526 13.13470547165471
ONEWEB-0163             
1 48061U 21025V   24227.92382905  .00000390  00000+0  10330-2 0  9994
2 48061  87.8879  93.8233 0001934  89.5995 270.5356 13.13471274165562
ONEWEB-0159             
1 48062U 21025W   24227.91272291 -.00000030  00000+0 -11715-3 0  9992
2 48062  87.8879  93.8084 0001956  84.3678 275.7674 13.13470035165487
ONEWEB-0164             
1 48063U 21025X   24228.12379229 -.00003232  00000+0 -88855-2 0  9991
2 48063  87.8881  93.7765 0001716  75.0446 285.0873 13.13484709165501
ONEWEB-0167             
1 48064U 21025Y   24227.92462140  .00000350  00000+0  92456-3 0  9993
2 48064  87.8880  93.8291 0001918  87.2838 272.8510 13.13470160165452
ONEWEB-0166             
1 48065U 21025Z   24227.86987034  .00000079  00000+0  18262-3 0  9992
2 48065  87.8879  93.8211 0002014  80.5630 279.5727 13.13469878165523
ONEWEB-0151             
1 48066U 21025AA  24227.87145544  .00000040  00000+0  73484-4 0  9992
2 48066  87.8881  93.8356 0001652  81.0622 279.0694 13.13468403165465
ONEWEB-0170             
1 48067U 21025AB  24228.10792143 -.00000156  00000+0 -46148-3 0  9999
2 48067  87.8882  93.7910 0001232  69.2672 290.8589 13.13469579165457
ONEWEB-0168             
1 48068U 21025AC  24227.86510968  .00000211  00000+0  54210-3 0  9994
2 48068  87.8885  93.8111 0001834  82.7083 277.4255 13.13470046165439
ONEWEB-0173             
1 48069U 21025AD  24227.85717254  .00000393  00000+0  10423-2 0  9999
2 48069  87.8885  93.8225 0001707  96.2407 263.8917 13.13470590165679
ONEWEB-0171             
1 48070U 21025AE  24227.58895781 -.00000211  00000+0 -61402-3 0  9998
2 48070  87.8883  93.9114 0001683  83.4169 276.7152 13.13471419165454
ONEWEB-0172             
1 48071U 21025AF  24228.17775212  .00000033  00000+0  55936-4 0  9997
2 48071  87.8885  93.7607 0001658  85.1632 274.9687 13.13469836166429
ONEWEB-0174             
1 48072U 21025AG  24227.93176817  .00000354  00000+0  93328-3 0  9999
2 48072  87.8885  93.8242 0001958  80.8532 279.2819 13.13470452165712
ONEWEB-0175             
1 48073U 21025AH  24228.18885954 -.00000231  00000+0 -66756-3 0  9998
2 48073  87.8877  93.7577 0001406  80.7504 279.3784 13.13469690165400
ONEWEB-0177             
1 48074U 21025AJ  24227.59213935 -.00000159  00000+0 -46974-3 0  9996
2 48074  87.8879  93.8856 0001996  91.9281 268.2076 13.13469506165513
ONEWEB-0178             
1 48075U 21025AK  24227.91445075  .00000191  00000+0  48773-3 0  9998
2 48075  87.8887  93.8432 0001873  86.5023 273.6321 13.13470086165609
ONEWEB-0108             
1 48076U 21025AL  24228.17933922  .00000004  00000+0 -24934-4 0  9999
2 48076  87.8882  93.7657 0001942  74.9546 285.1798 13.13469432165576
ONEWEB-0169             
1 48077U 21025AM  24227.60165979  .00000124  00000+0  30439-3 0  9994
2 48077  87.8878  93.8922 0002008  76.1595 283.9757 13.13470536164140
ONEWEB-0176             
1 48210U 21031A   24228.04847726 -.00000050  00000+0 -16908-3 0  9991
2 48210  87.8919  63.1898 0001746  87.6767 272.4563 13.14502309161435
ONEWEB-0184             
1 48211U 21031B   24228.09763675 -.00000083  00000+0 -25712-3 0  9996
2 48211  87.8919  63.1614 0000916 114.7894 245.3331 13.14502508160121
ONEWEB-0179             
1 48212U 21031C   24228.06751341  .00000239  00000+0  60895-3 0  9993
2 48212  87.8922  63.1727 0001835  90.3779 269.7561 13.14502767160169
ONEWEB-0180             
1 48213U 21031D   24227.79635688 -.00000082  00000+0 -25602-3 0  9993
2 48213  87.8920  63.2233 0001871  92.6284 267.5060 13.14504254160014
ONEWEB-0218             
1 48214U 21031E   24228.04689358  .00001623  00000+0  43439-2 0  9993
2 48214  87.8916  63.1748 0001371 120.2576 239.8689 13.14494854160201
ONEWEB-0209             
1 48215U 21031F   24227.80743881 -.00000134  00000+0 -39469-3 0  9996
2 48215  87.8919  63.2579 0001886  92.0466 268.0880 13.14503349160176
ONEWEB-0198             
1 48216U 21031G   24227.94381478 -.00000100  00000+0 -30374-3 0  9991
2 48216  87.8921  63.2352 0001623 101.2456 258.8856 13.14503891160307
ONEWEB-0189             
1 48217U 21031H   24228.10873843 -.00000153  00000+0 -44704-3 0  9993
2 48217  87.8919  63.1774 0001700 103.4774 256.6545 13.14502885160061
ONEWEB-0196             
1 48218U 21031J   24227.93429869  .00000093  00000+0  21564-3 0  9999
2 48218  87.8923  63.2172 0001681  88.8738 271.2584 13.14501299160046
ONEWEB-0183             
1 48219U 21031K   24227.90893118  .00000222  00000+0  56462-3 0  9998
2 48219  87.8919  63.2381 0001932  88.6107 271.5243 13.14503627160133
ONEWEB-0185             
1 48220U 21031L   24228.08733655  .00001195  00000+0  31876-2 0  9990
2 48220  87.8920  63.1744 0002113  89.4010 270.7362 13.14497259160083
ONEWEB-0187             
1 48221U 21031M   24227.90497027  .00000074  00000+0  16489-3 0  9990
2 48221  87.8920  63.2441 0001896  89.4593 270.6754 13.14503227160078
ONEWEB-0192             
1 48222U 21031N   24228.11349304  .00000564  00000+0  14876-2 0  9990
2 48222  87.8921  63.1995 0001712  88.7691 271.3635 13.14500460160028
ONEWEB-0219             
1 48223U 21031P   24227.94065274 -.00000037  00000+0 -13408-3 0  9990
2 48223  87.8923  63.2083 0001901  91.8413 268.2935 13.14501793160193
ONEWEB-0202             
1 48224U 21031Q   24228.07385376  .00000316  00000+0  81751-3 0  9998
2 48224  87.8920  63.2003 0001551 117.5788 242.5499 13.14503436160203
ONEWEB-0204             
1 48225U 21031R   24227.80347410 -.00000186  00000+0 -53492-3 0  9994
2 48225  87.8920  63.2664 0002062  80.2758 279.8604 13.14502222160054
ONEWEB-0205             
1 48226U 21031S   24227.93112687  .00000119  00000+0  28726-3 0  9991
2 48226  87.8920  63.2121 0001876  93.1823 266.9521 13.14504047160086
ONEWEB-0206             
1 48227U 21031T   24227.90417735  .00000160  00000+0  39641-3 0  9995
2 48227  87.8917  63.2054 0001977  91.0666 269.0690 13.14503948160037
ONEWEB-0182             
1 48228U 21031U   24227.82329881  .00000019  00000+0  15771-4 0  9993
2 48228  87.8920  63.2512 0001900  83.6100 276.5246 13.14502126160247
ONEWEB-0186             
1 48229U 21031V   24227.91052185  .00000188  00000+0  47174-3 0  9992
2 48229  87.8921  63.1973 0001731  89.1733 270.9595 13.14502858160195
ONEWEB-0181             
1 48230U 21031W   24228.04054740 -.00000148  00000+0 -43285-3 0  9995
2 48230  87.8921  63.2414 0001659  92.4505 267.6814 13.14502358160070
ONEWEB-0188             
1 48231U 21031X   24228.07860794  .00000255  00000+0  65211-3 0  9993
2 48231  87.8920  63.2288 0001802  89.0621 271.0715 13.14504121159976
ONEWEB-0220             
1 48232U 21031Y   24228.04213176 -.00000178  00000+0 -51498-3 0  9995
2 48232  87.8912  63.1969 0002033  95.3793 264.7569 13.14502251160239
ONEWEB-0165             
1 48233U 21031Z   24227.91844649  .00000126  00000+0  30435-3 0  9995
2 48233  87.8922  63.2423 0001765  93.7691 266.3640 13.14500739160177
ONEWEB-0199             
1 48234U 21031AA  24228.05482593  .00000059  00000+0  12564-3 0  9996
2 48234  87.8918  63.1837 0001645  82.4890 277.6427 13.14503137160098
ONEWEB-0203             
1 48235U 21031AB  24228.04530504 -.00000163  00000+0 -47467-3 0  9990
2 48235  87.8918  63.1872 0001276  83.8867 276.2408 13.14502704160102
ONEWEB-0197             
1 48236U 21031AC  24228.09684819 -.00000064  00000+0 -20744-3 0  9994
2 48236  87.8923  63.1860 0002035  81.2300 278.9060 13.14502173160028
ONEWEB-0194             
1 48237U 21031AD  24227.92320688  .00000182  00000+0  45590-3 0  9992
2 48237  87.8922  63.2142 0001544  81.9849 278.1456 13.14502255160179
ONEWEB-0193             
1 48238U 21031AE  24228.09129693  .00000036  00000+0  62755-4 0  9996
2 48238  87.8922  63.1888 0001637  89.7101 270.4216 13.14502609160145
ONEWEB-0191             
1 48239U 21031AF  24227.79791089 -.00000105  00000+0 -31838-3 0  9993
2 48239  87.8920  63.2291 0001683  89.6396 270.4926 13.14500466159964
ONEWEB-0195             
1 48240U 21031AG  24228.07940727  .00000231  00000+0  58810-3 0  9999
2 48240  87.8918  63.1720 0001762 101.6376 258.4951 13.14502697159984
ONEWEB-0201             
1 48241U 21031AH  24227.83994802  .00000285  00000+0  73539-3 0  9990
2 48241  87.8918  63.2563 0001804  92.2156 267.9180 13.14501692160186
ONEWEB-0207             
1 48242U 21031AJ  24228.04768967 -.00000066  00000+0 -21306-3 0  9990
2 48242  87.8919  63.1799 0001997  87.2598 272.8760 13.14503492160128
